[{"OBJECT_NAME":"SHIYAN-21 (SY-21)","OBJECT_ID":"2022-172A","EPOCH":"2026-03-09T23:40:42.191616","MEAN_MOTION":15.28197132,"ECCENTRICITY":0.00206059,"INCLINATION":35.9768,"RA_OF_ASC_NODE":332.6944,"ARG_OF_PERICENTER":79.3933,"MEAN_ANOMALY":280.9121,"EPHEMERIS_TYPE":0,"CLASSIFICATION_TYPE":"U","NORAD_CAT_ID":54752,"ELEMENT_SET_NO":999,"REV_AT_EPOCH":18050,"BSTAR":0.00041186164,"MEAN_MOTION_DOT":0.00011616,"MEAN_MOTION_DDOT":0},{"OBJECT_NAME":"STARLINK-30851","OBJECT_ID":"2023-170K","EPOCH":"2026-03-09T22:00:01.999584","MEAN_MOTION":15.27577842,"ECCENTRICITY":0.00014358,"INCLINATION":42.9995,"RA_OF_ASC_NODE":192.7124,"ARG_OF_PERICENTER":260.338,"MEAN_ANOMALY":216.0085,"EPHEMERIS_TYPE":0,"CLASSIFICATION_TYPE":"U","NORAD_CAT_ID":58215,"ELEMENT_SET_NO":999,"REV_AT_EPOCH":578,"BSTAR":0.00088140186,"MEAN_MOTION_DOT":0.0002407,"MEAN_MOTION_DDOT":0}]
